STARLINK-4497           
1 53411U 22097Z   26068.51824211  .00001974  00000+0  14201-3 0  9991
2 53411  53.2164 114.8896 0001261  91.3965 268.7172 15.08861686198625
DISKSAT C               
1 67219U 25305A   26068.80315184  .00011541  00000+0  75564-3 0  9993
2 67219  45.0017 250.1278 0004534 310.7706  49.2776 15.07852977 12312
